IRIDIUM 112             
1 41925U 17003J   25111.45261450  .00000102  00000+0  29223-4 0  9993
2 41925  86.3927 264.4855 0002104  89.0396 271.1041 14.34217551432822
IRIDIUM 111             
1 41926U 17003K   25111.50969996  .00000377  00000+0  12765-3 0  9996
2 41926  86.3926 264.5227 0002075  96.2254 263.9178 14.34217136432814
IRIDIUM 113             
1 42803U 17039A   25111.48966717  .00000019  00000+0 -37357-6 0  9996
2 42803  86.3964 138.4562 0002308  85.5653 274.5807 14.34217584410747
IRIDIUM 123             
1 42804U 17039B   25111.25207122  .00000004  00000+0 -56701-5 0  9997
2 42804  86.4021 169.9901 0001940 101.2673 258.8741 14.34217492409476
IRIDIUM 120             
1 42805U 17039C   25111.48332489  .00000061  00000+0  14558-4 0  9993
2 42805  86.3952 138.2963 0002364 100.7967 259.3495 14.34217669410736
IRIDIUM 115             
1 42806U 17039D   25111.51774276  .00000393  00000+0  11094-3 0  9991
2 42806  86.4490 138.3525 0001788 108.0621 252.0775 14.43281779413442
IRIDIUM 118             
1 42807U 17039E   25111.56285930 -.00000026  00000+0 -16517-4 0  9992
2 42807  86.4019 169.8604 0002206  92.3813 267.7635 14.34217242409516
IRIDIUM 117             
1 42808U 17039F   25111.58188607  .00000020  00000+0 -62225-7 0  9991
2 42808  86.4020 169.8141 0001843  97.1291 263.0115 14.34217636409546
